[{"OBJECT_NAME":"STARLINK-11737 [DTC]","OBJECT_ID":"2025-107C","EPOCH":"2026-03-09T11:19:46.358112","MEAN_MOTION":15.70884459,"ECCENTRICITY":0.00010393,"INCLINATION":42.9998,"RA_OF_ASC_NODE":99.5618,"ARG_OF_PERICENTER":321.6151,"MEAN_ANOMALY":38.4643,"EPHEMERIS_TYPE":0,"CLASSIFICATION_TYPE":"U","NORAD_CAT_ID":64066,"ELEMENT_SET_NO":999,"REV_AT_EPOCH":4726,"BSTAR":0.001536126,"MEAN_MOTION_DOT":0.00201895,"MEAN_MOTION_DDOT":0},{"OBJECT_NAME":"GFO","OBJECT_ID":"1998-007A","EPOCH":"2026-03-09T11:35:22.629120","MEAN_MOTION":15.65801864,"ECCENTRICITY":0.00488061,"INCLINATION":108.0178,"RA_OF_ASC_NODE":266.8886,"ARG_OF_PERICENTER":194.2539,"MEAN_ANOMALY":165.7295,"EPHEMERIS_TYPE":0,"CLASSIFICATION_TYPE":"U","NORAD_CAT_ID":25157,"ELEMENT_SET_NO":999,"REV_AT_EPOCH":51081,"BSTAR":0.00066525992,"MEAN_MOTION_DOT":0.00072245,"MEAN_MOTION_DDOT":0}]
